[{"OBJECT_NAME":"STARLINK-33979","OBJECT_ID":"2025-094D","EPOCH":"2026-02-18T01:45:34.780608","MEAN_MOTION":14.98336009,"ECCENTRICITY":0.00024367,"INCLINATION":70,"RA_OF_ASC_NODE":283.9674,"ARG_OF_PERICENTER":268.0297,"MEAN_ANOMALY":92.0583,"EPHEMERIS_TYPE":0,"CLASSIFICATION_TYPE":"U","NORAD_CAT_ID":63867,"ELEMENT_SET_NO":999,"REV_AT_EPOCH":4426,"BSTAR":0.00022623841,"MEAN_MOTION_DOT":2.608e-5,"MEAN_MOTION_DDOT":0},{"OBJECT_NAME":"STARLINK-34007","OBJECT_ID":"2025-094E","EPOCH":"2026-02-18T02:15:39.568608","MEAN_MOTION":14.98342477,"ECCENTRICITY":0.0003154,"INCLINATION":69.9991,"RA_OF_ASC_NODE":284.0363,"ARG_OF_PERICENTER":269.7665,"MEAN_ANOMALY":90.3132,"EPHEMERIS_TYPE":0,"CLASSIFICATION_TYPE":"U","NORAD_CAT_ID":63868,"ELEMENT_SET_NO":999,"REV_AT_EPOCH":4426,"BSTAR":0.00030972,"MEAN_MOTION_DOT":3.606e-5,"MEAN_MOTION_DDOT":0},{"OBJECT_NAME":"STARLINK-34006","OBJECT_ID":"2025-094F","EPOCH":"2026-02-18T20:29:22.544160","MEAN_MOTION":14.98336361,"ECCENTRICITY":0.000297,"INCLINATION":69.9999,"RA_OF_ASC_NODE":281.8723,"ARG_OF_PERICENTER":270.0767,"MEAN_ANOMALY":90.0052,"EPHEMERIS_TYPE":0,"CLASSIFICATION_TYPE":"U","NORAD_CAT_ID":63869,"ELEMENT_SET_NO":999,"REV_AT_EPOCH":4438,"BSTAR":0.00031728,"MEAN_MOTION_DOT":3.695e-5,"MEAN_MOTION_DDOT":0},{"OBJECT_NAME":"STARLINK-33986","OBJECT_ID":"2025-094G","EPOCH":"2026-02-18T20:41:23.739648","MEAN_MOTION":14.98336842,"ECCENTRICITY":0.0002668,"INCLINATION":70,"RA_OF_ASC_NODE":281.8973,"ARG_OF_PERICENTER":271.0097,"MEAN_ANOMALY":89.0756,"EPHEMERIS_TYPE":0,"CLASSIFICATION_TYPE":"U","NORAD_CAT_ID":63870,"ELEMENT_SET_NO":999,"REV_AT_EPOCH":4438,"BSTAR":0.00030064,"MEAN_MOTION_DOT":3.497e-5,"MEAN_MOTION_DDOT":0},{"OBJECT_NAME":"STARLINK-34013","OBJECT_ID":"2025-094H","EPOCH":"2026-02-18T20:23:07.799712","MEAN_MOTION":14.98321082,"ECCENTRICITY":0.0003161,"INCLINATION":69.9995,"RA_OF_ASC_NODE":281.8589,"ARG_OF_PERICENTER":266.8579,"MEAN_ANOMALY":93.2218,"EPHEMERIS_TYPE":0,"CLASSIFICATION_TYPE":"U","NORAD_CAT_ID":63871,"ELEMENT_SET_NO":999,"REV_AT_EPOCH":4438,"BSTAR":0.0002208,"MEAN_MOTION_DOT":2.542e-5,"MEAN_MOTION_DDOT":0},{"OBJECT_NAME":"STARLINK-34059","OBJECT_ID":"2025-094J","EPOCH":"2026-02-18T19:47:06.113184","MEAN_MOTION":14.98337933,"ECCENTRICITY":0.0001911,"INCLINATION":70.0012,"RA_OF_ASC_NODE":282.1718,"ARG_OF_PERICENTER":242.1677,"MEAN_ANOMALY":117.9288,"EPHEMERIS_TYPE":0,"CLASSIFICATION_TYPE":"U","NORAD_CAT_ID":63872,"ELEMENT_SET_NO":999,"REV_AT_EPOCH":4437,"BSTAR":-8.9841e-5,"MEAN_MOTION_DOT":-1.165e-5,"MEAN_MOTION_DDOT":0},{"OBJECT_NAME":"STARLINK-33987","OBJECT_ID":"2025-094K","EPOCH":"2026-02-18T20:35:08.769696","MEAN_MOTION":14.98337763,"ECCENTRICITY":0.0002924,"INCLINATION":69.9999,"RA_OF_ASC_NODE":281.8871,"ARG_OF_PERICENTER":277.9342,"MEAN_ANOMALY":82.1485,"EPHEMERIS_TYPE":0,"CLASSIFICATION_TYPE":"U","NORAD_CAT_ID":63873,"ELEMENT_SET_NO":999,"REV_AT_EPOCH":4438,"BSTAR":0.00034347,"MEAN_MOTION_DOT":4.008e-5,"MEAN_MOTION_DDOT":0},{"OBJECT_NAME":"STARLINK-34052","OBJECT_ID":"2025-094L","EPOCH":"2026-02-18T19:41:04.275168","MEAN_MOTION":14.98359792,"ECCENTRICITY":0.0002528,"INCLINATION":69.9998,"RA_OF_ASC_NODE":282.1545,"ARG_OF_PERICENTER":261.5026,"MEAN_ANOMALY":98.5846,"EPHEMERIS_TYPE":0,"CLASSIFICATION_TYPE":"U","NORAD_CAT_ID":63874,"ELEMENT_SET_NO":999,"REV_AT_EPOCH":4437,"BSTAR":0.00037517,"MEAN_MOTION_DOT":4.39e-5,"MEAN_MOTION_DDOT":0},{"OBJECT_NAME":"STARLINK-34023","OBJECT_ID":"2025-094M","EPOCH":"2026-02-18T20:29:08.346048","MEAN_MOTION":14.98335618,"ECCENTRICITY":0.0002038,"INCLINATION":69.9999,"RA_OF_ASC_NODE":281.8703,"ARG_OF_PERICENTER":271.2513,"MEAN_ANOMALY":88.8413,"EPHEMERIS_TYPE":0,"CLASSIFICATION_TYPE":"U","NORAD_CAT_ID":63875,"ELEMENT_SET_NO":999,"REV_AT_EPOCH":4438,"BSTAR":0.00026578,"MEAN_MOTION_DOT":3.08e-5,"MEAN_MOTION_DDOT":0},{"OBJECT_NAME":"STARLINK-34061","OBJECT_ID":"2025-094N","EPOCH":"2026-02-18T19:59:21.116256","MEAN_MOTION":14.98360353,"ECCENTRICITY":0.0002858,"INCLINATION":70.0017,"RA_OF_ASC_NODE":282.2022,"ARG_OF_PERICENTER":226.8328,"MEAN_ANOMALY":133.2592,"EPHEMERIS_TYPE":0,"CLASSIFICATION_TYPE":"U","NORAD_CAT_ID":63876,"ELEMENT_SET_NO":999,"REV_AT_EPOCH":4437,"BSTAR":-6.153e-5,"MEAN_MOTION_DOT":-8.28e-6,"MEAN_MOTION_DDOT":0},{"OBJECT_NAME":"STARLINK-33778","OBJECT_ID":"2025-094P","EPOCH":"2026-02-18T19:23:16.990656","MEAN_MOTION":14.98332562,"ECCENTRICITY":0.0003046,"INCLINATION":69.9998,"RA_OF_ASC_NODE":282.1094,"ARG_OF_PERICENTER":259.8232,"MEAN_ANOMALY":100.2583,"EPHEMERIS_TYPE":0,"CLASSIFICATION_TYPE":"U","NORAD_CAT_ID":63877,"ELEMENT_SET_NO":999,"REV_AT_EPOCH":4437,"BSTAR":0.00040842,"MEAN_MOTION_DOT":4.784e-5,"MEAN_MOTION_DDOT":0},{"OBJECT_NAME":"STARLINK-33901","OBJECT_ID":"2025-094Q","EPOCH":"2026-02-18T19:47:20.141952","MEAN_MOTION":14.98340101,"ECCENTRICITY":0.0002447,"INCLINATION":70.0006,"RA_OF_ASC_NODE":282.1664,"ARG_OF_PERICENTER":284.6178,"MEAN_ANOMALY":75.4709,"EPHEMERIS_TYPE":0,"CLASSIFICATION_TYPE":"U","NORAD_CAT_ID":63878,"ELEMENT_SET_NO":999,"REV_AT_EPOCH":4437,"BSTAR":0.00031853,"MEAN_MOTION_DOT":3.711e-5,"MEAN_MOTION_DDOT":0},{"OBJECT_NAME":"STARLINK-33812","OBJECT_ID":"2025-094R","EPOCH":"2026-02-18T20:47:10.002336","MEAN_MOTION":14.98338082,"ECCENTRICITY":0.0002711,"INCLINATION":69.9999,"RA_OF_ASC_NODE":281.9076,"ARG_OF_PERICENTER":268.7978,"MEAN_ANOMALY":91.287,"EPHEMERIS_TYPE":0,"CLASSIFICATION_TYPE":"U","NORAD_CAT_ID":63879,"ELEMENT_SET_NO":999,"REV_AT_EPOCH":4438,"BSTAR":0.0001329,"MEAN_MOTION_DOT":1.493e-5,"MEAN_MOTION_DDOT":0},{"OBJECT_NAME":"STARLINK-33779","OBJECT_ID":"2025-094S","EPOCH":"2026-02-18T19:35:04.692192","MEAN_MOTION":14.98335999,"ECCENTRICITY":0.0002396,"INCLINATION":70.0001,"RA_OF_ASC_NODE":282.1454,"ARG_OF_PERICENTER":275.0607,"MEAN_ANOMALY":85.0279,"EPHEMERIS_TYPE":0,"CLASSIFICATION_TYPE":"U","NORAD_CAT_ID":63880,"ELEMENT_SET_NO":999,"REV_AT_EPOCH":4437,"BSTAR":0.00020911,"MEAN_MOTION_DOT":2.403e-5,"MEAN_MOTION_DDOT":0},{"OBJECT_NAME":"STARLINK-33905","OBJECT_ID":"2025-094T","EPOCH":"2026-02-18T20:11:06.396000","MEAN_MOTION":14.98327618,"ECCENTRICITY":0.0002171,"INCLINATION":70.001,"RA_OF_ASC_NODE":281.8311,"ARG_OF_PERICENTER":256.0247,"MEAN_ANOMALY":104.0671,"EPHEMERIS_TYPE":0,"CLASSIFICATION_TYPE":"U","NORAD_CAT_ID":63881,"ELEMENT_SET_NO":999,"REV_AT_EPOCH":4438,"BSTAR":0.00042369,"MEAN_MOTION_DOT":4.966e-5,"MEAN_MOTION_DDOT":0},{"OBJECT_NAME":"STARLINK-34003","OBJECT_ID":"2025-094U","EPOCH":"2026-02-18T17:04:18.843744","MEAN_MOTION":15.42735827,"ECCENTRICITY":0.0003307,"INCLINATION":69.9998,"RA_OF_ASC_NODE":256.5154,"ARG_OF_PERICENTER":272.2093,"MEAN_ANOMALY":87.871,"EPHEMERIS_TYPE":0,"CLASSIFICATION_TYPE":"U","NORAD_CAT_ID":63882,"ELEMENT_SET_NO":999,"REV_AT_EPOCH":4500,"BSTAR":0.0004008,"MEAN_MOTION_DOT":0.00017457,"MEAN_MOTION_DDOT":0},{"OBJECT_NAME":"STARLINK-33968","OBJECT_ID":"2025-094V","EPOCH":"2026-02-18T19:53:20.163840","MEAN_MOTION":14.98328578,"ECCENTRICITY":0.0003344,"INCLINATION":69.9993,"RA_OF_ASC_NODE":282.1823,"ARG_OF_PERICENTER":276.2591,"MEAN_ANOMALY":83.8187,"EPHEMERIS_TYPE":0,"CLASSIFICATION_TYPE":"U","NORAD_CAT_ID":63883,"ELEMENT_SET_NO":999,"REV_AT_EPOCH":4437,"BSTAR":7.7578e-5,"MEAN_MOTION_DOT":8.33e-6,"MEAN_MOTION_DDOT":0}]
