STARLINK-33979          
1 63867U 25094D   26049.07331922  .00002608  00000+0  22624-3 0  9992
2 63867  70.0000 283.9674 0002436 268.0297  92.0583 14.98336009 44263
STARLINK-34007          
1 63868U 25094E   26049.09420797  .00003606  00000+0  30972-3 0  9998
2 63868  69.9991 284.0363 0003154 269.7665  90.3132 14.98342477 44269
STARLINK-34006          
1 63869U 25094F   26049.85373315  .00003695  00000+0  31728-3 0  9994
2 63869  69.9999 281.8723 0002970 270.0767  90.0052 14.98336361 44382
STARLINK-33986          
1 63870U 25094G   26049.86208032  .00003497  00000+0  30064-3 0  9992
2 63870  70.0000 281.8973 0002668 271.0097  89.0756 14.98336842 44381
STARLINK-34013          
1 63871U 25094H   26049.84939583  .00002542  00000+0  22080-3 0  9992
2 63871  69.9995 281.8589 0003161 266.8579  93.2218 14.98321082 44381
STARLINK-34059          
1 63872U 25094J   26049.82437631 -.00001165  00000+0 -89841-4 0  9999
2 63872  70.0012 282.1718 0001911 242.1677 117.9288 14.98337933 44372
STARLINK-33987          
1 63873U 25094K   26049.85774039  .00004008  00000+0  34347-3 0  9996
2 63873  69.9999 281.8871 0002924 277.9342  82.1485 14.98337763 44384
STARLINK-34052          
1 63874U 25094L   26049.82018837  .00004390  00000+0  37517-3 0  9997
2 63874  69.9998 282.1545 0002528 261.5026  98.5846 14.98359792 44371
STARLINK-34023          
1 63875U 25094M   26049.85356882  .00003080  00000+0  26578-3 0  9996
2 63875  69.9999 281.8703 0002038 271.2513  88.8413 14.98335618 44384
STARLINK-34061          
1 63876U 25094N   26049.83288329 -.00000828  00000+0 -61530-4 0  9992
2 63876  70.0017 282.2022 0002858 226.8328 133.2592 14.98360353 44374
STARLINK-33778          
1 63877U 25094P   26049.80783554  .00004784  00000+0  40842-3 0  9995
2 63877  69.9998 282.1094 0003046 259.8232 100.2583 14.98332562 44373
STARLINK-33901          
1 63878U 25094Q   26049.82453868  .00003711  00000+0  31853-3 0  9991
2 63878  70.0006 282.1664 0002447 284.6178  75.4709 14.98340101 44370
STARLINK-33812          
1 63879U 25094R   26049.86608799  .00001493  00000+0  13290-3 0  9991
2 63879  69.9999 281.9076 0002711 268.7978  91.2870 14.98338082 44389
STARLINK-33779          
1 63880U 25094S   26049.81602653  .00002403  00000+0  20911-3 0  9991
2 63880  70.0001 282.1454 0002396 275.0607  85.0279 14.98335999 44377
STARLINK-33905          
1 63881U 25094T   26049.84104625  .00004966  00000+0  42369-3 0  9998
2 63881  70.0010 281.8311 0002171 256.0247 104.0671 14.98327618 44384
STARLINK-34003          
1 63882U 25094U   26049.71132921  .00017457  00000+0  40080-3 0  9992
2 63882  69.9998 256.5154 0003307 272.2093  87.8710 15.42735827 45009
STARLINK-33968          
1 63883U 25094V   26049.82870560  .00000833  00000+0  77578-4 0  9996
2 63883  69.9993 282.1823 0003344 276.2591  83.8187 14.98328578 44375
